<?xml version="1.0" encoding="UTF-8"?>
<ndm xmlns:xsi="http://www.w3.org/2001/XMLSchema-instance" xsi:noNamespaceSchemaLocation="https://sanaregistry.org/r/ndmxml_unqualified/ndmxml-2.0.0-master-2.0.xsd">
<omm id="CCSDS_OMM_VERS" version="2.0">
<header><CREATION_DATE/><ORIGINATOR/></header><body><segment><metadata><OBJECT_NAME>IRIDIUM 39</OBJECT_NAME><OBJECT_ID>1997-069D</OBJECT_ID><CENTER_NAME>EARTH</CENTER_NAME><REF_FRAME>TEME</REF_FRAME><TIME_SYSTEM>UTC</TIME_SYSTEM><MEAN_ELEMENT_THEORY>SGP4</MEAN_ELEMENT_THEORY></metadata><data><meanElements><EPOCH>2025-06-12T02:07:20.472960</EPOCH><MEAN_MOTION>14.49214810</MEAN_MOTION><ECCENTRICITY>.001646</ECCENTRICITY><INCLINATION>86.3933</INCLINATION><RA_OF_ASC_NODE>213.3159</RA_OF_ASC_NODE><ARG_OF_PERICENTER>330.7465</ARG_OF_PERICENTER><MEAN_ANOMALY>29.2816</MEAN_ANOMALY></meanElements><tleParameters><EPHEMERIS_TYPE>0</EPHEMERIS_TYPE><CLASSIFICATION_TYPE>U</CLASSIFICATION_TYPE><NORAD_CAT_ID>25042</NORAD_CAT_ID><ELEMENT_SET_NO>999</ELEMENT_SET_NO><REV_AT_EPOCH>44848</REV_AT_EPOCH><BSTAR>.9579E-4</BSTAR><MEAN_MOTION_DOT>.386E-5</MEAN_MOTION_DOT><MEAN_MOTION_DDOT>0</MEAN_MOTION_DDOT></tleParameters></data></segment></body></omm>
<omm id="CCSDS_OMM_VERS" version="2.0">
<header><CREATION_DATE/><ORIGINATOR/></header><body><segment><metadata><OBJECT_NAME>IRIDIUM 38</OBJECT_NAME><OBJECT_ID>1997-069E</OBJECT_ID><CENTER_NAME>EARTH</CENTER_NAME><REF_FRAME>TEME</REF_FRAME><TIME_SYSTEM>UTC</TIME_SYSTEM><MEAN_ELEMENT_THEORY>SGP4</MEAN_ELEMENT_THEORY></metadata><data><meanElements><EPOCH>2025-06-12T03:49:12.484992</EPOCH><MEAN_MOTION>14.38114458</MEAN_MOTION><ECCENTRICITY>.0004193</ECCENTRICITY><INCLINATION>86.3969</INCLINATION><RA_OF_ASC_NODE>235.2688</RA_OF_ASC_NODE><ARG_OF_PERICENTER>103.4942</ARG_OF_PERICENTER><MEAN_ANOMALY>256.6723</MEAN_ANOMALY></meanElements><tleParameters><EPHEMERIS_TYPE>0</EPHEMERIS_TYPE><CLASSIFICATION_TYPE>U</CLASSIFICATION_TYPE><NORAD_CAT_ID>25043</NORAD_CAT_ID><ELEMENT_SET_NO>999</ELEMENT_SET_NO><REV_AT_EPOCH>44549</REV_AT_EPOCH><BSTAR>.10938E-3</BSTAR><MEAN_MOTION_DOT>.351E-5</MEAN_MOTION_DOT><MEAN_MOTION_DDOT>0</MEAN_MOTION_DDOT></tleParameters></data></segment></body></omm>
<omm id="CCSDS_OMM_VERS" version="2.0">
<header><CREATION_DATE/><ORIGINATOR/></header><body><segment><metadata><OBJECT_NAME>IRIDIUM 42</OBJECT_NAME><OBJECT_ID>1997-077A</OBJECT_ID><CENTER_NAME>EARTH</CENTER_NAME><REF_FRAME>TEME</REF_FRAME><TIME_SYSTEM>UTC</TIME_SYSTEM><MEAN_ELEMENT_THEORY>SGP4</MEAN_ELEMENT_THEORY></metadata><data><meanElements><EPOCH>2025-06-12T17:11:47.328000</EPOCH><MEAN_MOTION>14.36349709</MEAN_MOTION><ECCENTRICITY>.0002928</ECCENTRICITY><INCLINATION>86.3971</INCLINATION><RA_OF_ASC_NODE>241.1986</RA_OF_ASC_NODE><ARG_OF_PERICENTER>102.9495</ARG_OF_PERICENTER><MEAN_ANOMALY>257.2029</MEAN_ANOMALY></meanElements><tleParameters><EPHEMERIS_TYPE>0</EPHEMERIS_TYPE><CLASSIFICATION_TYPE>U</CLASSIFICATION_TYPE><NORAD_CAT_ID>25077</NORAD_CAT_ID><ELEMENT_SET_NO>999</ELEMENT_SET_NO><REV_AT_EPOCH>44055</REV_AT_EPOCH><BSTAR>.94955E-4</BSTAR><MEAN_MOTION_DOT>.297E-5</MEAN_MOTION_DOT><MEAN_MOTION_DDOT>0</MEAN_MOTION_DDOT></tleParameters></data></segment></body></omm>
<omm id="CCSDS_OMM_VERS" version="2.0">
<header><CREATION_DATE/><ORIGINATOR/></header><body><segment><metadata><OBJECT_NAME>IRIDIUM 44</OBJECT_NAME><OBJECT_ID>1997-077B</OBJECT_ID><CENTER_NAME>EARTH</CENTER_NAME><REF_FRAME>TEME</REF_FRAME><TIME_SYSTEM>UTC</TIME_SYSTEM><MEAN_ELEMENT_THEORY>SGP4</MEAN_ELEMENT_THEORY></metadata><data><meanElements><EPOCH>2025-06-11T17:02:54.452544</EPOCH><MEAN_MOTION>14.40238474</MEAN_MOTION><ECCENTRICITY>.000388</ECCENTRICITY><INCLINATION>86.3977</INCLINATION><RA_OF_ASC_NODE>223.5615</RA_OF_ASC_NODE><ARG_OF_PERICENTER>72.4573</ARG_OF_PERICENTER><MEAN_ANOMALY>287.7049</MEAN_ANOMALY></meanElements><tleParameters><EPHEMERIS_TYPE>0</EPHEMERIS_TYPE><CLASSIFICATION_TYPE>U</CLASSIFICATION_TYPE><NORAD_CAT_ID>25078</NORAD_CAT_ID><ELEMENT_SET_NO>999</ELEMENT_SET_NO><REV_AT_EPOCH>44291</REV_AT_EPOCH><BSTAR>.8542E-4</BSTAR><MEAN_MOTION_DOT>.29E-5</MEAN_MOTION_DOT><MEAN_MOTION_DDOT>0</MEAN_MOTION_DDOT></tleParameters></data></segment></body></omm>
<omm id="CCSDS_OMM_VERS" version="2.0">
<header><CREATION_DATE/><ORIGINATOR/></header><body><segment><metadata><OBJECT_NAME>IRIDIUM 45</OBJECT_NAME><OBJECT_ID>1997-082A</OBJECT_ID><CENTER_NAME>EARTH</CENTER_NAME><REF_FRAME>TEME</REF_FRAME><TIME_SYSTEM>UTC</TIME_SYSTEM><MEAN_ELEMENT_THEORY>SGP4</MEAN_ELEMENT_THEORY></metadata><data><meanElements><EPOCH>2025-06-11T17:34:02.405856</EPOCH><MEAN_MOTION>15.22245568</MEAN_MOTION><ECCENTRICITY>.011672</ECCENTRICITY><INCLINATION>86.3592</INCLINATION><RA_OF_ASC_NODE>50.5448</RA_OF_ASC_NODE><ARG_OF_PERICENTER>353.6001</ARG_OF_PERICENTER><MEAN_ANOMALY>6.3744</MEAN_ANOMALY></meanElements><tleParameters><EPHEMERIS_TYPE>0</EPHEMERIS_TYPE><CLASSIFICATION_TYPE>U</CLASSIFICATION_TYPE><NORAD_CAT_ID>25104</NORAD_CAT_ID><ELEMENT_SET_NO>999</ELEMENT_SET_NO><REV_AT_EPOCH>45121</REV_AT_EPOCH><BSTAR>.49454E-3</BSTAR><MEAN_MOTION_DOT>.1379E-3</MEAN_MOTION_DOT><MEAN_MOTION_DDOT>0</MEAN_MOTION_DDOT></tleParameters></data></segment></body></omm>
<omm id="CCSDS_OMM_VERS" version="2.0">
<header><CREATION_DATE/><ORIGINATOR/></header><body><segment><metadata><OBJECT_NAME>IRIDIUM 24</OBJECT_NAME><OBJECT_ID>1997-082B</OBJECT_ID><CENTER_NAME>EARTH</CENTER_NAME><REF_FRAME>TEME</REF_FRAME><TIME_SYSTEM>UTC</TIME_SYSTEM><MEAN_ELEMENT_THEORY>SGP4</MEAN_ELEMENT_THEORY></metadata><data><meanElements><EPOCH>2025-06-12T12:33:24.144768</EPOCH><MEAN_MOTION>14.42095511</MEAN_MOTION><ECCENTRICITY>.0013627</ECCENTRICITY><INCLINATION>86.3902</INCLINATION><RA_OF_ASC_NODE>82.2797</RA_OF_ASC_NODE><ARG_OF_PERICENTER>92.3011</ARG_OF_PERICENTER><MEAN_ANOMALY>267.9750</MEAN_ANOMALY></meanElements><tleParameters><EPHEMERIS_TYPE>0</EPHEMERIS_TYPE><CLASSIFICATION_TYPE>U</CLASSIFICATION_TYPE><NORAD_CAT_ID>25105</NORAD_CAT_ID><ELEMENT_SET_NO>999</ELEMENT_SET_NO><REV_AT_EPOCH>44279</REV_AT_EPOCH><BSTAR>.12182E-3</BSTAR><MEAN_MOTION_DOT>.421E-5</MEAN_MOTION_DOT><MEAN_MOTION_DDOT>0</MEAN_MOTION_DDOT></tleParameters></data></segment></body></omm>
<omm id="CCSDS_OMM_VERS" version="2.0">
<header><CREATION_DATE/><ORIGINATOR/></header><body><segment><metadata><OBJECT_NAME>IRIDIUM 51</OBJECT_NAME><OBJECT_ID>1998-018A</OBJECT_ID><CENTER_NAME>EARTH</CENTER_NAME><REF_FRAME>TEME</REF_FRAME><TIME_SYSTEM>UTC</TIME_SYSTEM><MEAN_ELEMENT_THEORY>SGP4</MEAN_ELEMENT_THEORY></metadata><data><meanElements><EPOCH>2025-06-12T17:47:37.976928</EPOCH><MEAN_MOTION>15.39556600</MEAN_MOTION><ECCENTRICITY>.00836</ECCENTRICITY><INCLINATION>86.3841</INCLINATION><RA_OF_ASC_NODE>58.0361</RA_OF_ASC_NODE><ARG_OF_PERICENTER>267.2119</ARG_OF_PERICENTER><MEAN_ANOMALY>91.9564</MEAN_ANOMALY></meanElements><tleParameters><EPHEMERIS_TYPE>0</EPHEMERIS_TYPE><CLASSIFICATION_TYPE>U</CLASSIFICATION_TYPE><NORAD_CAT_ID>25262</NORAD_CAT_ID><ELEMENT_SET_NO>999</ELEMENT_SET_NO><REV_AT_EPOCH>44656</REV_AT_EPOCH><BSTAR>.57424E-3</BSTAR><MEAN_MOTION_DOT>.25609E-3</MEAN_MOTION_DOT><MEAN_MOTION_DDOT>0</MEAN_MOTION_DDOT></tleParameters></data></segment></body></omm>
<omm id="CCSDS_OMM_VERS" version="2.0">
<header><CREATION_DATE/><ORIGINATOR/></header><body><segment><metadata><OBJECT_NAME>IRIDIUM 57</OBJECT_NAME><OBJECT_ID>1998-019B</OBJECT_ID><CENTER_NAME>EARTH</CENTER_NAME><REF_FRAME>TEME</REF_FRAME><TIME_SYSTEM>UTC</TIME_SYSTEM><MEAN_ELEMENT_THEORY>SGP4</MEAN_ELEMENT_THEORY></metadata><data><meanElements><EPOCH>2025-06-12T08:43:31.118304</EPOCH><MEAN_MOTION>14.35890658</MEAN_MOTION><ECCENTRICITY>.0002375</ECCENTRICITY><INCLINATION>86.3968</INCLINATION><RA_OF_ASC_NODE>147.2825</RA_OF_ASC_NODE><ARG_OF_PERICENTER>89.0234</ARG_OF_PERICENTER><MEAN_ANOMALY>271.1235</MEAN_ANOMALY></meanElements><tleParameters><EPHEMERIS_TYPE>0</EPHEMERIS_TYPE><CLASSIFICATION_TYPE>U</CLASSIFICATION_TYPE><NORAD_CAT_ID>25273</NORAD_CAT_ID><ELEMENT_SET_NO>999</ELEMENT_SET_NO><REV_AT_EPOCH>42430</REV_AT_EPOCH><BSTAR>.8884E-4</BSTAR><MEAN_MOTION_DOT>.277E-5</MEAN_MOTION_DOT><MEAN_MOTION_DDOT>0</MEAN_MOTION_DDOT></tleParameters></data></segment></body></omm>

</ndm>
