IRIDIUM 39              
1 25042U 97069D   25163.08843140  .00000386  00000+0  95790-4 0  9999
2 25042  86.3933 213.3159 0016460 330.7465  29.2816 14.49214810448486
IRIDIUM 38              
1 25043U 97069E   25163.15917228  .00000351  00000+0  10938-3 0  9999
2 25043  86.3969 235.2688 0004193 103.4942 256.6723 14.38114458445497
IRIDIUM 42              
1 25077U 97077A   25163.71652000  .00000297  00000+0  94955-4 0  9992
2 25077  86.3971 241.1986 0002928 102.9495 257.2029 14.36349709440550
IRIDIUM 44              
1 25078U 97077B   25162.71035246  .00000290  00000+0  85420-4 0  9999
2 25078  86.3977 223.5615 0003880  72.4573 287.7049 14.40238474442919
IRIDIUM 45              
1 25104U 97082A   25162.73197229  .00013790  00000+0  49454-3 0  9992
2 25104  86.3592  50.5448 0116720 353.6001   6.3744 15.22245568451215
IRIDIUM 24              
1 25105U 97082B   25163.52319612  .00000421  00000+0  12182-3 0  9998
2 25105  86.3902  82.2797 0013627  92.3011 267.9750 14.42095511442797
IRIDIUM 51              
1 25262U 98018A   25163.74141177  .00025609  00000+0  57424-3 0  9998
2 25262  86.3841  58.0361 0083600 267.2119  91.9564 15.39556600446566
IRIDIUM 57              
1 25273U 98019B   25163.36355461  .00000277  00000+0  88840-4 0  9993
2 25273  86.3968 147.2825 0002375  89.0234 271.1235 14.35890658424306
